NORAD_CAT_ID,OBJECT_NAME,OBJECT_TYPE,EPOCH,MEAN_MOTION,ECCENTRICITY,INCLINATION,RA_OF_ASC_NODE,ARG_OF_PERICENTER,MEAN_ANOMALY,BSTAR,MEAN_MOTION_DOT,MEAN_MOTION_DDOT,TLE_LINE0,TLE_LINE1,TLE_LINE2,SEMIMAJOR_AXIS,PERIOD,APOGEE,PERIGEE,DECAYED
53401.0,STARLINK-4525,PAYLOAD,2023-05-11 03:20:18,15.08850137,0.0001298,53.2162,83.9064,91.5617,268.5523,0.00018212,2.613e-05,0.0,0 STARLINK-4525,1 53401U 22097P   23131.13910330  .00002613  00000-0  18212-3 0  9992,2 53401  53.2162  83.9064 0001298  91.5617 268.5523 15.08850137 41995,6917.849,95.437,540.612,538.816,0.0
53401.0,STARLINK-4525,PAYLOAD,2023-05-12 03:11:06,15.08836871,0.0001392,53.2166,79.448,79.081,281.0339,3.4577e-05,2.62e-06,0.0,0 STARLINK-4525,1 53401U 22097P   23132.13271519  .00000262  00000-0  34577-4 0  9993,2 53401  53.2166  79.4480 0001392  79.0810 281.0339 15.08836871 42144,6917.89,95.438,540.718,538.792,0.0
53401.0,STARLINK-4525,PAYLOAD,2023-05-12 23:51:06,15.08850298,0.0001251,53.2155,75.5819,75.941,284.1721,0.00013242,1.821e-05,0.0,0 STARLINK-4525,1 53401U 22097P   23132.99382883  .00001821  00000-0  13242-3 0  9991,2 53401  53.2155  75.5819 0001251  75.9410 284.1721 15.08850298 42272,6917.849,95.437,540.579,538.848,0.0
53401.0,STARLINK-4525,PAYLOAD,2023-05-13 03:01:52,15.0885906,0.0001237,53.2155,74.9861,77.9928,282.1202,0.00027823,4.145e-05,0.0,0 STARLINK-4525,1 53401U 22097P   23133.12630571  .00004145  00000-0  27823-3 0  9999,2 53401  53.2155  74.9861 0001237  77.9928 282.1202 15.08859060 42786,6917.822,95.436,540.543,538.831,0.0
53401.0,STARLINK-4525,PAYLOAD,2023-05-14 02:52:40,15.08842928,0.000113,53.2157,70.5233,75.3782,284.7336,0.00017606,2.515e-05,0.0,0 STARLINK-4525,1 53401U 22097P   23134.11991433  .00002515  00000-0  17606-3 0  9993,2 53401  53.2157  70.5233 0001130  75.3782 284.7336 15.08842928 42449,6917.871,95.437,540.518,538.955,0.0
53401.0,STARLINK-4525,PAYLOAD,2023-05-14 20:21:55,15.08838731,9.97e-05,53.2159,67.253,69.5731,290.5368,0.00021452,3.128e-05,0.0,0 STARLINK-4525,1 53401U 22097P   23134.84855691  .00003128  00000-0  21452-3 0  9993,2 53401  53.2159  67.2530 0000997  69.5731 290.5368 15.08838731 43047,6917.884,95.438,540.439,539.06,0.0
53401.0,STARLINK-4525,PAYLOAD,2023-05-15 12:15:46,15.08845061,0.000123,53.2166,64.2823,97.9415,262.1717,0.00025718,3.808e-05,0.0,0 STARLINK-4525,1 53401U 22097P   23135.51095411  .00003808  00000-0  25718-3 0  9998,2 53401  53.2166  64.2823 0001230  97.9415 262.1717 15.08845061 42655,6917.865,95.437,540.581,538.879,0.0
53401.0,STARLINK-4525,PAYLOAD,2023-05-16 02:34:15,15.08836622,0.0001242,53.2171,61.6062,91.8855,268.2279,5.6712e-05,6.15e-06,0.0,0 STARLINK-4525,1 53401U 22097P   23136.10711837  .00000615  00000-0  56712-4 0  9993,2 53401  53.2171  61.6062 0001242  91.8855 268.2279 15.08836622 42744,6917.891,95.438,540.615,538.897,0.0
53401.0,STARLINK-4525,PAYLOAD,2023-05-16 18:28:06,15.08842522,0.0001262,53.2168,58.6319,87.3119,272.8017,9.7592e-05,1.266e-05,0.0,0 STARLINK-4525,1 53401U 22097P   23136.76951677  .00001266  00000-0  97592-4 0  9997,2 53401  53.2168  58.6319 0001262  87.3119 272.8017 15.08842522 43339,6917.873,95.437,540.611,538.865,0.0
53401.0,STARLINK-4525,PAYLOAD,2023-05-17 02:25:01,15.08843981,0.0001274,53.2172,57.1455,88.8402,271.2737,9.5823e-05,1.238e-05,0.0,0 STARLINK-4525,1 53401U 22097P   23137.10071696  .00001238  00000-0  95823-4 0  9994,2 53401  53.2172  57.1455 0001274  88.8402 271.2737 15.08843981 43380,6917.868,95.437,540.615,538.852,0.0
53401.0,STARLINK-4525,PAYLOAD,2023-05-18 00:40:26,15.08839744,0.0001333,53.2171,52.9822,87.3552,272.7593,0.00010057,1.313e-05,0.0,0 STARLINK-4525,1 53401U 22097P   23138.02808079  .00001313  00000-0  10057-3 0  9998,2 53401  53.2171  52.9822 0001333  87.3552 272.7593 15.08839744 43036,6917.881,95.438,540.668,538.824,0.0
53401.0,STARLINK-4525,PAYLOAD,2023-05-18 18:09:40,15.0884373,0.0001351,53.2172,49.7104,90.3545,269.7602,0.00011126,1.483e-05,0.0,0 STARLINK-4525,1 53401U 22097P   23138.75671900  .00001483  00000-0  11126-3 0  9995,2 53401  53.2172  49.7104 0001351  90.3545 269.7602 15.08843730 43633,6917.869,95.437,540.669,538.799,0.0
53401.0,STARLINK-4525,PAYLOAD,2023-05-19 03:41:58,15.08849332,0.0001358,53.2178,47.9255,95.9037,264.211,0.00011891,1.606e-05,0.0,0 STARLINK-4525,1 53401U 22097P   23139.15415303  .00001606  00000-0  11891-3 0  9999,2 53401  53.2178  47.9255 0001358  95.9037 264.2110 15.08849332 43201,6917.852,95.437,540.656,538.777,0.0
53401.0,STARLINK-4525,PAYLOAD,2023-05-19 21:11:13,15.08838269,0.0001392,53.2173,44.6529,99.5146,260.6004,6.9367e-05,8.16e-06,0.0,0 STARLINK-4525,1 53401U 22097P   23139.88280047  .00000816  00000-0  69367-4 0  9998,2 53401  53.2173  44.6529 0001392  99.5146 260.6004 15.08838269 43808,6917.886,95.438,540.714,538.788,0.0
53401.0,STARLINK-4525,PAYLOAD,2023-05-20 00:22:00,15.08839679,0.0001286,53.2175,44.0578,90.7435,269.3705,7.6303e-05,9.27e-06,0.0,0 STARLINK-4525,1 53401U 22097P   23140.01527956  .00000927  00000-0  76303-4 0  9999,2 53401  53.2175  44.0578 0001286  90.7435 269.3705 15.08839679 43332,6917.881,95.438,540.636,538.857,0.0
53401.0,STARLINK-4525,PAYLOAD,2023-05-20 17:51:13,15.08851916,9.53e-05,53.218,40.7844,91.5114,268.5988,0.00012221,1.658e-05,0.0,0 STARLINK-4525,1 53401U 22097P   23140.74390924  .00001658  00000-0  12221-3 0  9992,2 53401  53.2180  40.7844 0000953  91.5114 268.5988 15.08851916 43444,6917.844,95.437,540.368,539.05,0.0
53401.0,STARLINK-4525,PAYLOAD,2023-05-21 00:12:45,15.08863117,0.0001135,53.2174,39.6023,102.3065,257.8054,0.00033065,4.982e-05,0.0,0 STARLINK-4525,1 53401U 22097P   23141.00886342  .00004982  00000-0  33065-3 0  9998,2 53401  53.2174  39.6023 0001135 102.3065 257.8054 15.08863117 43487,6917.81,95.436,540.46,538.89,0.0
53401.0,STARLINK-4525,PAYLOAD,2023-05-21 17:42:01,15.08831526,0.0001326,53.2179,36.3339,107.7579,252.3558,-0.00015759,-2.794e-05,0.0,0 STARLINK-4525,1 53401U 22097P   23141.73751927 -.00002794  00000-0 -15759-3 0  9999,2 53401  53.2179  36.3339 0001326 107.7579 252.3558 15.08831526 43597,6917.906,95.438,540.689,538.854,0.0
53401.0,STARLINK-4525,PAYLOAD,2023-05-22 00:03:34,15.08815133,0.0001085,53.2171,35.1411,94.4418,265.6699,-0.00039879,-6.624e-05,0.0,0 STARLINK-4525,1 53401U 22097P   23142.00248816 -.00006624  00000-0 -39879-3 0  9993,2 53401  53.2171  35.1411 0001085  94.4418 265.6699 15.08815133 43637,6917.956,95.439,540.572,539.071,0.0
53401.0,STARLINK-4525,PAYLOAD,2023-05-22 09:35:53,15.08825973,0.0001047,53.2174,33.3566,87.2246,272.8866,-5.0674e-05,-1.094e-05,0.0,0 STARLINK-4525,1 53401U 22097P   23142.39992973 -.00001094  00000-0 -50674-4 0  9998,2 53401  53.2174  33.3566 0001047  87.2246 272.8866 15.08825973 43693,6917.923,95.438,540.513,539.064,0.0
53401.0,STARLINK-4525,PAYLOAD,2023-05-22 23:54:22,15.08835624,9.21e-05,53.2164,30.6786,72.4609,287.6484,0.00049502,7.598e-05,0.0,0 STARLINK-4525,1 53401U 22097P   23142.99609350  .00007598  00000-0  49502-3 0  9998,2 53401  53.2164  30.6786 0000921  72.4609 287.6484 15.08835624 43789,6917.894,95.438,540.396,539.122,0.0
53401.0,STARLINK-4525,PAYLOAD,2023-05-23 23:45:08,15.08869483,9.26e-05,53.2163,26.2197,79.7707,280.339,0.00096419,0.00015103,0.0,0 STARLINK-4525,1 53401U 22097P   23143.98968591  .00015103  00000-0  96419-3 0  9993,2 53401  53.2163  26.2197 0000926  79.7707 280.3390 15.08869483 43932,6917.79,95.436,540.296,539.015,0.0
53401.0,STARLINK-4525,PAYLOAD,2023-05-24 15:39:00,15.08852266,0.0001172,53.2162,23.2467,77.9602,282.1522,0.00033032,4.975e-05,0.0,0 STARLINK-4525,1 53401U 22097P   23144.65208652  .00004975  00000-0  33032-3 0  9990,2 53401  53.2162  23.2467 0001172  77.9602 282.1522 15.08852266 44036,6917.843,95.437,540.519,538.897,0.0
53401.0,STARLINK-4525,PAYLOAD,2023-05-25 21:51:19,15.08852225,0.0001066,53.217,17.595,78.9197,281.1915,0.00046968,7.197e-05,0.0,0 STARLINK-4525,1 53401U 22097P   23145.91064497  .00007197  00000-0  46968-3 0  9998,2 53401  53.2170  17.5950 0001066  78.9197 281.1915 15.08852225 44715,6917.843,95.437,540.445,538.971,0.0
53401.0,STARLINK-4525,PAYLOAD,2023-05-26 18:31:20,15.08840014,0.0001125,53.2165,13.7294,64.4259,295.6849,4.8205e-05,4.79e-06,0.0,0 STARLINK-4525,1 53401U 22097P   23146.77176738  .00000479  00000-0  48205-4 0  9998,2 53401  53.2165  13.7294 0001125  64.4259 295.6849 15.08840014 44352,6917.88,95.438,540.524,538.967,0.0
53401.0,STARLINK-4525,PAYLOAD,2023-05-26 21:42:07,15.08839332,0.0001084,53.2169,13.1347,65.3297,294.7808,7.5319e-05,9.11e-06,0.0,0 STARLINK-4525,1 53401U 22097P   23146.90424914  .00000911  00000-0  75319-4 0  9992,2 53401  53.2169  13.1347 0001084  65.3297 294.7808 15.08839332 44867,6917.882,95.438,540.497,538.998,0.0
53401.0,STARLINK-4525,PAYLOAD,2023-05-27 21:32:54,15.08839377,0.0001036,53.2173,8.677,92.6226,267.4885,0.00018578,2.67e-05,0.0,0 STARLINK-4525,1 53401U 22097P   23147.89784870  .00002670  00000-0  18578-3 0  9998,2 53401  53.2173   8.6770 0001036  92.6226 267.4885 15.08839377 44527,6917.882,95.438,540.464,539.031,0.0
53401.0,STARLINK-4525,PAYLOAD,2023-05-28 05:29:49,15.08846112,9.91e-05,53.2168,7.1879,85.3913,274.7192,0.00012525,1.706e-05,0.0,0 STARLINK-4525,1 53401U 22097P   23148.22904487  .00001706  00000-0  12525-3 0  9999,2 53401  53.2168   7.1879 0000991  85.3913 274.7192 15.08846112 45063,6917.862,95.437,540.412,539.041,0.0
53401.0,STARLINK-4525,PAYLOAD,2023-05-28 21:23:41,15.08841519,0.0001135,53.2178,4.2182,104.3573,255.7545,0.00012653,1.727e-05,0.0,0 STARLINK-4525,1 53401U 22097P   23148.89144710  .00001727  00000-0  12653-3 0  9992,2 53401  53.2178   4.2182 0001135 104.3573 255.7545 15.08841519 45162,6917.876,95.437,540.526,538.956,0.0
53401.0,STARLINK-4525,PAYLOAD,2023-05-29 21:14:28,15.08832953,9.92e-05,53.2182,359.758,94.6502,265.4604,4.9173e-05,4.95e-06,0.0,0 STARLINK-4525,1 53401U 22097P   23149.88505662  .00000495  00000-0  49173-4 0  9998,2 53401  53.2182 359.7580 0000992  94.6502 265.4604 15.08832953 45313,6917.902,95.438,540.453,539.081,0.0
